[{"OBJECT_NAME":"STARLINK-3961","OBJECT_ID":"2022-052AR","EPOCH":"2026-03-09T19:24:16.738848","MEAN_MOTION":15.08838259,"ECCENTRICITY":0.00012864,"INCLINATION":53.2165,"RA_OF_ASC_NODE":258.5882,"ARG_OF_PERICENTER":100.0936,"MEAN_ANOMALY":260.0202,"EPHEMERIS_TYPE":0,"CLASSIFICATION_TYPE":"U","NORAD_CAT_ID":52637,"ELEMENT_SET_NO":999,"REV_AT_EPOCH":21195,"BSTAR":-1.9491046e-5,"MEAN_MOTION_DOT":-5.98e-6,"MEAN_MOTION_DDOT":0},{"OBJECT_NAME":"OBJECT B","OBJECT_ID":"2024-174B","EPOCH":"2026-03-09T23:26:11.570784","MEAN_MOTION":15.09493991,"ECCENTRICITY":0.00195829,"INCLINATION":97.4508,"RA_OF_ASC_NODE":75.153,"ARG_OF_PERICENTER":270.277,"MEAN_ANOMALY":89.6216,"EPHEMERIS_TYPE":0,"CLASSIFICATION_TYPE":"U","NORAD_CAT_ID":61239,"ELEMENT_SET_NO":999,"REV_AT_EPOCH":8042,"BSTAR":0.00031274192,"MEAN_MOTION_DOT":4.97e-5,"MEAN_MOTION_DDOT":0}]
